12 49
OneWeb-1200-588 0
1 00001U 00000ABC 00001.00000000  .00000000  00000-0  00000+0 0    04
2 00001  87.9000   0.0000 0000001   0.0000   0.0000 13.18000000    01
OneWeb-1200-588 1
1 00002U 00000ABC 00001.00000000  .00000000  00000-0  00000+0 0    05
2 00002  87.9000   0.0000 0000001   0.0000   7.3469 13.18000000    01
OneWeb-1200-588 2
1 00003U 00000ABC 00001.00000000  .00000000  00000-0  00000+0 0    06
2 00003  87.9000   0.0000 0000001   0.0000  14.6939 13.18000000    05
OneWeb-1200-588 3
1 00004U 00000ABC 00001.00000000  .00000000  00000-0  00000+0 0    07
2 00004  87.9000   0.0000 0000001   0.0000  22.0408 13.18000000    00
OneWeb-1200-588 4
1 00005U 00000ABC 00001.00000000  .00000000  00000-0  00000+0 0    08
2 00005  87.9000   0.0000 0000001   0.0000  29.3878 13.18000000    02
OneWeb-1200-588 5
1 00006U 00000ABC 00001.00000000  .00000000  00000-0  00000+0 0    09
2 00006  87.9000   0.0000 0000001   0.0000  36.7347 13.18000000    06
OneWeb-1200-588 6
1 00007U 00000ABC 00001.00000000  .00000000  00000-0  00000+0 0    00
2 00007  87.9000   0.0000 0000001   0.0000  44.0816 13.18000000    00
OneWeb-1200-588 7
1 00008U 00000ABC 00001.00000000  .00000000  00000-0  00000+0 0    01
2 00008  87.9000   0.0000 0000001   0.0000  51.4286 13.18000000    04
OneWeb-1200-588 8
1 00009U 00000ABC 00001.00000000  .00000000  00000-0  00000+0 0    02
2 00009  87.9000   0.0000 0000001   0.0000  58.7755 13.18000000    06
OneWeb-1200-588 9
1 00010U 00000ABC 00001.00000000  .00000000  00000-0  00000+0 0    04
2 00010  87.9000   0.0000 0000001   0.0000  66.1224 13.18000000    02
OneWeb-1200-588 10
1 00011U 00000ABC 00001.00000000  .00000000  00000-0  00000+0 0    05
2 00011  87.9000   0.0000 0000001   0.0000  73.4694 13.18000000    05
OneWeb-1200-588 11
1 00012U 00000ABC 00001.00000000  .00000000  00000-0  00000+0 0    06
2 00012  87.9000   0.0000 0000001   0.0000  80.8163 13.18000000    09
OneWeb-1200-588 12
1 00013U 00000ABC 00001.00000000  .00000000  00000-0  00000+0 0    07
2 00013  87.9000   0.0000 0000001   0.0000  88.1633 13.18000000    03
OneWeb-1200-588 13
1 00014U 00000ABC 00001.00000000  .00000000  00000-0  00000+0 0    08
2 00014  87.9000   0.0000 0000001   0.0000  95.5102 13.18000000    07
OneWeb-1200-588 14
1 00015U 00000ABC 00001.00000000  .00000000  00000-0  00000+0 0    09
2 00015  87.9000   0.0000 0000001   0.0000 102.8571 13.18000000    00
OneWeb-1200-588 15
1 00016U 00000ABC 00001.00000000  .00000000  00000-0  00000+0 0    00
2 00016  87.9000   0.0000 0000001   0.0000 110.2041 13.18000000    06
OneWeb-1200-588 16
1 00017U 00000ABC 00001.00000000  .00000000  00000-0  00000+0 0    01
2 00017  87.9000   0.0000 0000001   0.0000 117.5510 13.18000000    08
OneWeb-1200-588 17
1 00018U 00000ABC 00001.00000000  .00000000  00000-0  00000+0 0    02
2 00018  87.9000   0.0000 0000001   0.0000 124.8980 13.18000000    01
OneWeb-1200-588 18
1 00019U 00000ABC 00001.00000000  .00000000  00000-0  00000+0 0    03
2 00019  87.9000   0.0000 0000001   0.0000 132.2449 13.18000000    05
OneWeb-1200-588 19
1 00020U 00000ABC 00001.00000000  .00000000  00000-0  00000+0 0    05
2 00020  87.9000   0.0000 0000001   0.0000 139.5918 13.18000000    08
OneWeb-1200-588 20
1 00021U 00000ABC 00001.00000000  .00000000  00000-0  00000+0 0    06
2 00021  87.9000   0.0000 0000001   0.0000 146.9388 13.18000000    02
OneWeb-1200-588 21
1 00022U 00000ABC 00001.00000000  .00000000  00000-0  00000+0 0    07
2 00022  87.9000   0.0000 0000001   0.0000 154.2857 13.18000000    06
OneWeb-1200-588 22
1 00023U 00000ABC 00001.00000000  .00000000  00000-0  00000+0 0    08
2 00023  87.9000   0.0000 0000001   0.0000 161.6327 13.18000000    01
OneWeb-1200-588 23
1 00024U 00000ABC 00001.00000000  .00000000  00000-0  00000+0 0    09
2 00024  87.9000   0.0000 0000001   0.0000 168.9796 13.18000000    02
OneWeb-1200-588 24
1 00025U 00000ABC 00001.00000000  .00000000  00000-0  00000+0 0    00
2 00025  87.9000   0.0000 0000001   0.0000 176.3265 13.18000000    07
OneWeb-1200-588 25
1 00026U 00000ABC 00001.00000000  .00000000  00000-0  00000+0 0    01
2 00026  87.9000   0.0000 0000001   0.0000 183.6735 13.18000000    01
OneWeb-1200-588 26
1 00027U 00000ABC 00001.00000000  .00000000  00000-0  00000+0 0    02
2 00027  87.9000   0.0000 0000001   0.0000 191.0204 13.18000000    06
OneWeb-1200-588 27
1 00028U 00000ABC 00001.00000000  .00000000  00000-0  00000+0 0    03
2 00028  87.9000   0.0000 0000001   0.0000 198.3673 13.18000000    07
OneWeb-1200-588 28
1 00029U 00000ABC 00001.00000000  .00000000  00000-0  00000+0 0    04
2 00029  87.9000   0.0000 0000001   0.0000 205.7143 13.18000000    03
OneWeb-1200-588 29
1 00030U 00000ABC 00001.00000000  .00000000  00000-0  00000+0 0    06
2 00030  87.9000   0.0000 0000001   0.0000 213.0612 13.18000000    08
OneWeb-1200-588 30
1 00031U 00000ABC 00001.00000000  .00000000  00000-0  00000+0 0    07
2 00031  87.9000   0.0000 0000001   0.0000 220.4082 13.18000000    02
OneWeb-1200-588 31
1 00032U 00000ABC 00001.00000000  .00000000  00000-0  00000+0 0    08
2 00032  87.9000   0.0000 0000001   0.0000 227.7551 13.18000000    04
OneWeb-1200-588 32
1 00033U 00000ABC 00001.00000000  .00000000  00000-0  00000+0 0    09
2 00033  87.9000   0.0000 0000001   0.0000 235.1020 13.18000000    09
OneWeb-1200-588 33
1 00034U 00000ABC 00001.00000000  .00000000  00000-0  00000+0 0    00
2 00034  87.9000   0.0000 0000001   0.0000 242.4490 13.18000000    02
OneWeb-1200-588 34
1 00035U 00000ABC 00001.00000000  .00000000  00000-0  00000+0 0    01
2 00035  87.9000   0.0000 0000001   0.0000 249.7959 13.18000000    03
OneWeb-1200-588 35
1 00036U 00000ABC 00001.00000000  .00000000  00000-0  00000+0 0    02
2 00036  87.9000   0.0000 0000001   0.0000 257.1429 13.18000000    09
OneWeb-1200-588 36
1 00037U 00000ABC 00001.00000000  .00000000  00000-0  00000+0 0    03
2 00037  87.9000   0.0000 0000001   0.0000 264.4898 13.18000000    01
OneWeb-1200-588 37
1 00038U 00000ABC 00001.00000000  .00000000  00000-0  00000+0 0    04
2 00038  87.9000   0.0000 0000001   0.0000 271.8367 13.18000000    05
OneWeb-1200-588 38
1 00039U 00000ABC 00001.00000000  .00000000  00000-0  00000+0 0    05
2 00039  87.9000   0.0000 0000001   0.0000 279.1837 13.18000000    09
OneWeb-1200-588 39
1 00040U 00000ABC 00001.00000000  .00000000  00000-0  00000+0 0    07
2 00040  87.9000   0.0000 0000001   0.0000 286.5306 13.18000000    04
OneWeb-1200-588 40
1 00041U 00000ABC 00001.00000000  .00000000  00000-0  00000+0 0    08
2 00041  87.9000   0.0000 0000001   0.0000 293.8776 13.18000000    07
OneWeb-1200-588 41
1 00042U 00000ABC 00001.00000000  .00000000  00000-0  00000+0 0    09
2 00042  87.9000   0.0000 0000001   0.0000 301.2245 13.18000000    03
OneWeb-1200-588 42
1 00043U 00000ABC 00001.00000000  .00000000  00000-0  00000+0 0    00
2 00043  87.9000   0.0000 0000001   0.0000 308.5714 13.18000000    05
OneWeb-1200-588 43
1 00044U 00000ABC 00001.00000000  .00000000  00000-0  00000+0 0    01
2 00044  87.9000   0.0000 0000001   0.0000 315.9184 13.18000000    09
OneWeb-1200-588 44
1 00045U 00000ABC 00001.00000000  .00000000  00000-0  00000+0 0    02
2 00045  87.9000   0.0000 0000001   0.0000 323.2653 13.18000000    03
OneWeb-1200-588 45
1 00046U 00000ABC 00001.00000000  .00000000  00000-0  00000+0 0    03
2 00046  87.9000   0.0000 0000001   0.0000 330.6122 13.18000000    07
OneWeb-1200-588 46
1 00047U 00000ABC 00001.00000000  .00000000  00000-0  00000+0 0    04
2 00047  87.9000   0.0000 0000001   0.0000 337.9592 13.18000000    09
OneWeb-1200-588 47
1 00048U 00000ABC 00001.00000000  .00000000  00000-0  00000+0 0    05
2 00048  87.9000   0.0000 0000001   0.0000 345.3061 13.18000000    04
OneWeb-1200-588 48
1 00049U 00000ABC 00001.00000000  .00000000  00000-0  00000+0 0    06
2 00049  87.9000   0.0000 0000001   0.0000 352.6531 13.18000000    08
OneWeb-1200-588 49
1 00050U 00000ABC 00001.00000000  .00000000  00000-0  00000+0 0    08
2 00050  87.9000  30.0000 0000001   0.0000   3.6735 13.18000000    02
OneWeb-1200-588 50
1 00051U 00000ABC 00001.00000000  .00000000  00000-0  00000+0 0    09
2 00051  87.9000  30.0000 0000001   0.0000  11.0204 13.18000000    07
OneWeb-1200-588 51
1 00052U 00000ABC 00001.00000000  .00000000  00000-0  00000+0 0    00
2 00052  87.9000  30.0000 0000001   0.0000  18.3673 13.18000000    08
OneWeb-1200-588 52
1 00053U 00000ABC 00001.00000000  .00000000  00000-0  00000+0 0    01
2 00053  87.9000  30.0000 0000001   0.0000  25.7143 13.18000000    03
OneWeb-1200-588 53
1 00054U 00000ABC 00001.00000000  .00000000  00000-0  00000+0 0    02
2 00054  87.9000  30.0000 0000001   0.0000  33.0612 13.18000000    07
OneWeb-1200-588 54
1 00055U 00000ABC 00001.00000000  .00000000  00000-0  00000+0 0    03
2 00055  87.9000  30.0000 0000001   0.0000  40.4082 13.18000000    01
OneWeb-1200-588 55
1 00056U 00000ABC 00001.00000000  .00000000  00000-0  00000+0 0    04
2 00056  87.9000  30.0000 0000001   0.0000  47.7551 13.18000000    03
OneWeb-1200-588 56
1 00057U 00000ABC 00001.00000000  .00000000  00000-0  00000+0 0    05
2 00057  87.9000  30.0000 0000001   0.0000  55.1020 13.18000000    08
OneWeb-1200-588 57
1 00058U 00000ABC 00001.00000000  .00000000  00000-0  00000+0 0    06
2 00058  87.9000  30.0000 0000001   0.0000  62.4490 13.18000000    01
OneWeb-1200-588 58
1 00059U 00000ABC 00001.00000000  .00000000  00000-0  00000+0 0    07
2 00059  87.9000  30.0000 0000001   0.0000  69.7959 13.18000000    02
OneWeb-1200-588 59
1 00060U 00000ABC 00001.00000000  .00000000  00000-0  00000+0 0    09
2 00060  87.9000  30.0000 0000001   0.0000  77.1429 13.18000000    09
OneWeb-1200-588 60
1 00061U 00000ABC 00001.00000000  .00000000  00000-0  00000+0 0    00
2 00061  87.9000  30.0000 0000001   0.0000  84.4898 13.18000000    01
OneWeb-1200-588 61
1 00062U 00000ABC 00001.00000000  .00000000  00000-0  00000+0 0    01
2 00062  87.9000  30.0000 0000001   0.0000  91.8367 13.18000000    05
